IRIDIUM 63              
1 25286U 98021B   25245.00837495  .00000894  00000+0  29750-3 0  9993
2 25286  86.3950  49.8781 0002226  85.8763 274.2689 14.36597737434878
IRIDIUM 69              
1 25319U 98026A   25244.99341411  .00000977  00000+0  29795-3 0  9991
2 25319  86.3925  62.9399 0004218 111.0174 249.1477 14.41031998434121
IRIDIUM 71              
1 25320U 98026B   25245.19865167  .00000936  00000+0  28418-3 0  9991
2 25320  86.3931  57.5309 0002692 140.0565 220.0833 14.41213948434683
IRIDIUM 73              
1 25344U 98032C   25244.84621582  .00001316  00000+0  32227-3 0  9992
2 25344  86.4451  14.2492 0002867  92.0898 268.0636 14.51795812441686
IRIDIUM 82              
1 25467U 98051A   25245.01261106  .00047925  00000+0  12359-2 0  9990
2 25467  86.3607  71.8464 0079066   5.7727 354.4415 15.35767510435730
